[{"OBJECT_NAME":"PALISADE","OBJECT_ID":"2019-069A","EPOCH":"2026-03-09T16:08:09.565152","MEAN_MOTION":13.11903827,"ECCENTRICITY":0.0008751,"INCLINATION":87.8869,"RA_OF_ASC_NODE":299.6164,"ARG_OF_PERICENTER":344.4129,"MEAN_ANOMALY":15.6728,"EPHEMERIS_TYPE":0,"CLASSIFICATION_TYPE":"U","NORAD_CAT_ID":44634,"ELEMENT_SET_NO":999,"REV_AT_EPOCH":30606,"BSTAR":-0.0010924646,"MEAN_MOTION_DOT":-3.77e-6,"MEAN_MOTION_DDOT":0},{"OBJECT_NAME":"ONEWEB-0035","OBJECT_ID":"2020-008N","EPOCH":"2026-03-09T21:29:01.355712","MEAN_MOTION":13.10369731,"ECCENTRICITY":0.00019296,"INCLINATION":87.8766,"RA_OF_ASC_NODE":56.0488,"ARG_OF_PERICENTER":88.0653,"MEAN_ANOMALY":272.0695,"EPHEMERIS_TYPE":0,"CLASSIFICATION_TYPE":"U","NORAD_CAT_ID":45143,"ELEMENT_SET_NO":999,"REV_AT_EPOCH":29493,"BSTAR":-0.00044866167,"MEAN_MOTION_DOT":-1.44e-6,"MEAN_MOTION_DDOT":0}]
